[
    {
        "Altitude(m)": 617710.631186447,
        "Argument of Periapsis(deg)": 0.0,
        "Eccentricity": 0.0,
        "Inclination(deg)": 60.0,
        "Latitude(deg)": -41.102637200017384,
        "Longitude(deg)": 69.96670135211376,
        "Mean Anomaly(deg)": -49.09089999999997,
        "RAAN(deg)": 200.0,
        "Satellite Name": "Test1 899",
        "Satellite Number": 899,
        "Semi-Major Axis(m)": 6980739.136638005,
        "Time(s)": 0
    },
    {
        "Altitude(m)": 617517.9294370248,
        "Argument of Periapsis(deg)": 0.00010418945913296404,
        "Eccentricity": 0.0,
        "Inclination(deg)": 60.0,
        "Latitude(deg)": -40.63684343913186,
        "Longitude(deg)": 70.46349362454961,
        "Mean Anomaly(deg)": -48.470793854538115,
        "RAAN(deg)": 199.99957995086027,
        "Satellite Name": "Test1 899",
        "Satellite Number": 899,
        "Semi-Major Axis(m)": 6980739.136638005,
        "Time(s)": 10
    }
]